[{"OBJECT_NAME":"STARLINK-5258","OBJECT_ID":"2022-141AQ","EPOCH":"2026-03-09T22:25:07.852224","MEAN_MOTION":15.08839014,"ECCENTRICITY":0.00013987,"INCLINATION":53.2189,"RA_OF_ASC_NODE":353.1029,"ARG_OF_PERICENTER":102.7806,"MEAN_ANOMALY":257.3342,"EPHEMERIS_TYPE":0,"CLASSIFICATION_TYPE":"U","NORAD_CAT_ID":54195,"ELEMENT_SET_NO":999,"REV_AT_EPOCH":18603,"BSTAR":-2.4793087e-5,"MEAN_MOTION_DOT":-6.82e-6,"MEAN_MOTION_DDOT":0},{"OBJECT_NAME":"CZ-4C R\/B","OBJECT_ID":"2021-026B","EPOCH":"2026-03-09T16:37:41.696544","MEAN_MOTION":15.16445633,"ECCENTRICITY":0.00393855,"INCLINATION":97.7468,"RA_OF_ASC_NODE":117.371,"ARG_OF_PERICENTER":22.5612,"MEAN_ANOMALY":337.7341,"EPHEMERIS_TYPE":0,"CLASSIFICATION_TYPE":"U","NORAD_CAT_ID":48080,"ELEMENT_SET_NO":999,"REV_AT_EPOCH":27175,"BSTAR":0.00026802982,"MEAN_MOTION_DOT":5.244e-5,"MEAN_MOTION_DDOT":0}]
